{
  "type": "FeatureCollection",
  "features": [
    {
      "type": "Feature",
      "properties": {
        "norad_id": 39773,
        "name": "EUTELSAT 3B",
        "group": "eutelsat",
        "lat": -0.049325838744114704,
        "lon": -44.32089366272607,
        "alt_km": 35783.37507544751,
        "timestamp": "2025-12-26T14:28:47.360685+00:00",
        "meta_object_name": "EUTELSAT 3B",
        "meta_object_id": "2014-030A",
        "meta_epoch": "2025-12-25T22:09:38.747232",
        "meta_mean_motion": 1.00270275,
        "meta_eccentricity": 0.00042764,
        "meta_inclination": 0.0601,
        "meta_ra_of_asc_node": 351.2904,
        "meta_arg_of_pericenter": 244.007,
        "meta_mean_anomaly": 194.888,
        "meta_ephemeris_type": 0,
        "meta_classification_type": "U",
        "meta_norad_cat_id": 39773,
        "meta_element_set_no": 999,
        "meta_rev_at_epoch": 4233,
        "meta_bstar": 0,
        "meta_mean_motion_dot": 4.1e-07,
        "meta_mean_motion_ddot": 0,
        "tle_line1": "1 39773U 14030A   25359.92336513  .00000041  00000+0  00000+0 0  9996",
        "tle_line2": "2 39773   0.0601 351.2904 0004276 244.0070 194.8880  1.00270275 42332"
      },
      "geometry": {
        "type": "Point",
        "coordinates": [
          -44.32089366272607,
          -0.049325838744114704
        ]
      }
    },
    {
      "type": "Feature",
      "properties": {
        "norad_id": 40425,
        "name": "EUTELSAT 115 WEST B",
        "group": "eutelsat",
        "lat": 0.0018525557751481328,
        "lon": -162.36852170114594,
        "alt_km": 35785.84866863484,
        "timestamp": "2025-12-26T14:28:47.360702+00:00",
        "meta_object_name": "EUTELSAT 115 WEST B",
        "meta_object_id": "2015-010B",
        "meta_epoch": "2025-12-26T05:44:38.581152",
        "meta_mean_motion": 1.00273604,
        "meta_eccentricity": 7.8e-06,
        "meta_inclination": 0.0077,
        "meta_ra_of_asc_node": 147.8651,
        "meta_arg_of_pericenter": 258.8043,
        "meta_mean_anomaly": 19.571,
        "meta_ephemeris_type": 0,
        "meta_classification_type": "U",
        "meta_norad_cat_id": 40425,
        "meta_element_set_no": 999,
        "meta_rev_at_epoch": 3965,
        "meta_bstar": 0,
        "meta_mean_motion_dot": -3e-08,
        "meta_mean_motion_ddot": 0,
        "tle_line1": "1 40425U 15010B   25360.23933543 -.00000003  00000+0  00000+0 0  9992",
        "tle_line2": "2 40425   0.0077 147.8651 0000078 258.8043  19.5710  1.00273604 39657"
      },
      "geometry": {
        "type": "Point",
        "coordinates": [
          -162.36852170114594,
          0.0018525557751481328
        ]
      }
    },
    {
      "type": "Feature",
      "properties": {
        "norad_id": 40875,
        "name": "EUTELSAT 8 WEST B",
        "group": "eutelsat",
        "lat": -0.07744067014287966,
        "lon": -55.44338179071853,
        "alt_km": 35770.6139228849,
        "timestamp": "2025-12-26T14:28:47.360715+00:00",
        "meta_object_name": "EUTELSAT 8 WEST B",
        "meta_object_id": "2015-039B",
        "meta_epoch": "2025-12-26T06:08:50.644608",
        "meta_mean_motion": 1.00271377,
        "meta_eccentricity": 0.00042085,
        "meta_inclination": 0.0651,
        "meta_ra_of_asc_node": 11.4179,
        "meta_arg_of_pericenter": 264.1892,
        "meta_mean_anomaly": 263.6052,
        "meta_ephemeris_type": 0,
        "meta_classification_type": "U",
        "meta_norad_cat_id": 40875,
        "meta_element_set_no": 999,
        "meta_rev_at_epoch": 3792,
        "meta_bstar": 0,
        "meta_mean_motion_dot": -4.4e-07,
        "meta_mean_motion_ddot": 0,
        "tle_line1": "1 40875U 15039B   25360.25614172 -.00000044  00000+0  00000+0 0  9993",
        "tle_line2": "2 40875   0.0651  11.4179 0004208 264.1892 263.6052  1.00271377 37920"
      },
      "geometry": {
        "type": "Point",
        "coordinates": [
          -55.44338179071853,
          -0.07744067014287966
        ]
      }
    },
    {
      "type": "Feature",
      "properties": {
        "norad_id": 41310,
        "name": "EUTELSAT 9B",
        "group": "eutelsat",
        "lat": -0.0415475294681528,
        "lon": -38.432023816976596,
        "alt_km": 35772.88165103534,
        "timestamp": "2025-12-26T14:28:47.360727+00:00",
        "meta_object_name": "EUTELSAT 9B",
        "meta_object_id": "2016-005A",
        "meta_epoch": "2025-12-25T22:01:38.544672",
        "meta_mean_motion": 1.0026988,
        "meta_eccentricity": 0.00046842,
        "meta_inclination": 0.0266,
        "meta_ra_of_asc_node": 46.8521,
        "meta_arg_of_pericenter": 228.3219,
        "meta_mean_anomaly": 158.904,
        "meta_ephemeris_type": 0,
        "meta_classification_type": "U",
        "meta_norad_cat_id": 41310,
        "meta_element_set_no": 999,
        "meta_rev_at_epoch": 3637,
        "meta_bstar": 0,
        "meta_mean_motion_dot": 8.3e-07,
        "meta_mean_motion_ddot": 0,
        "tle_line1": "1 41310U 16005A   25359.91780723  .00000083  00000+0  00000+0 0  9991",
        "tle_line2": "2 41310   0.0266  46.8521 0004684 228.3219 158.9040  1.00269880 36370"
      },
      "geometry": {
        "type": "Point",
        "coordinates": [
          -38.432023816976596,
          -0.0415475294681528
        ]
      }
    },
    {
      "type": "Feature",
      "properties": {
        "norad_id": 41382,
        "name": "EUTELSAT 65 WEST A",
        "group": "eutelsat",
        "lat": -0.0629429492419748,
        "lon": -112.658078788757,
        "alt_km": 35777.70635994121,
        "timestamp": "2025-12-26T14:28:47.360739+00:00",
        "meta_object_name": "EUTELSAT 65 WEST A",
        "meta_object_id": "2016-014A",
        "meta_epoch": "2025-12-26T05:52:37.198272",
        "meta_mean_motion": 1.00271283,
        "meta_eccentricity": 0.00023625,
        "meta_inclination": 0.0476,
        "meta_ra_of_asc_node": 346.7914,
        "meta_arg_of_pericenter": 291.636,
        "meta_mean_anomaly": 199.5409,
        "meta_ephemeris_type": 0,
        "meta_classification_type": "U",
        "meta_norad_cat_id": 41382,
        "meta_element_set_no": 999,
        "meta_rev_at_epoch": 3580,
        "meta_bstar": 0,
        "meta_mean_motion_dot": -2.54e-06,
        "meta_mean_motion_ddot": 0,
        "tle_line1": "1 41382U 16014A   25360.24487498 -.00000254  00000+0  00000+0 0  9992",
        "tle_line2": "2 41382   0.0476 346.7914 0002362 291.6360 199.5409  1.00271283 35808"
      },
      "geometry": {
        "type": "Point",
        "coordinates": [
          -112.658078788757,
          -0.0629429492419748
        ]
      }
    },
    {
      "type": "Feature",
      "properties": {
        "norad_id": 41589,
        "name": "EUTELSAT 117 WEST B",
        "group": "eutelsat",
        "lat": 0.0007965975367968754,
        "lon": -164.4343461964906,
        "alt_km": 35784.65602872568,
        "timestamp": "2025-12-26T14:28:47.360751+00:00",
        "meta_object_name": "EUTELSAT 117 WEST B",
        "meta_object_id": "2016-038B",
        "meta_epoch": "2025-12-24T09:59:01.014144",
        "meta_mean_motion": 1.00277873,
        "meta_eccentricity": 6.384e-05,
        "meta_inclination": 0.0094,
        "meta_ra_of_asc_node": 154.0765,
        "meta_arg_of_pericenter": 139.5473,
        "meta_mean_anomaly": 192.3072,
        "meta_ephemeris_type": 0,
        "meta_classification_type": "U",
        "meta_norad_cat_id": 41589,
        "meta_element_set_no": 999,
        "meta_rev_at_epoch": 3491,
        "meta_bstar": 0,
        "meta_mean_motion_dot": 9e-08,
        "meta_mean_motion_ddot": 0,
        "tle_line1": "1 41589U 16038B   25358.41598396  .00000009  00000+0  00000+0 0  9990",
        "tle_line2": "2 41589   0.0094 154.0765 0000638 139.5473 192.3072  1.00277873 34915"
      },
      "geometry": {
        "type": "Point",
        "coordinates": [
          -164.4343461964906,
          0.0007965975367968754
        ]
      }
    },
    {
      "type": "Feature",
      "properties": {
        "norad_id": 42741,
        "name": "EUTELSAT 172B",
        "group": "eutelsat",
        "lat": 0.01170763107025464,
        "lon": 124.53269519638623,
        "alt_km": 35785.80281513445,
        "timestamp": "2025-12-26T14:28:47.360763+00:00",
        "meta_object_name": "EUTELSAT 172B",
        "meta_object_id": "2017-029B",
        "meta_epoch": "2025-12-26T05:07:26.649696",
        "meta_mean_motion": 1.00270973,
        "meta_eccentricity": 1.341e-05,
        "meta_inclination": 0.0365,
        "meta_ra_of_asc_node": 154.2111,
        "meta_arg_of_pericenter": 0.1125,
        "meta_mean_anomaly": 189.4975,
        "meta_ephemeris_type": 0,
        "meta_classification_type": "U",
        "meta_norad_cat_id": 42741,
        "meta_element_set_no": 999,
        "meta_rev_at_epoch": 3199,
        "meta_bstar": 0,
        "meta_mean_motion_dot": 1.6e-07,
        "meta_mean_motion_ddot": 0,
        "tle_line1": "1 42741U 17029B   25360.21350289  .00000016  00000+0  00000+0 0  9998",
        "tle_line2": "2 42741   0.0365 154.2111 0000134   0.1125 189.4975  1.00270973 31990"
      },
      "geometry": {
        "type": "Point",
        "coordinates": [
          124.53269519638623,
          0.01170763107025464
        ]
      }
    }
  ]
}